{"fetched_at":"2026-03-30T06:02:59Z","count":15439,"tles":[{"name":"STARLINK-30587","line1":"1 58064U 23158P   26087.91696087 -.00000185  00000+0  28186-5 0  9995","line2":"2 58064  43.0047 278.2031 0002039 286.6596  73.4032 15.27574574136514","category":"Starlink"}]}