{
  "norad_id": 58064,
  "name": "STARLINK-30587",
  "history": [
    {
      "epoch": "2026-03-28T22:00:25.419168",
      "apogee_km": 484.46434264157597,
      "perigee_km": 481.6663443259031,
      "latitude_deg": 26.505344435258337,
      "longitude_deg": 74.42824351997115,
      "semi_major_axis_km": 6861.202343483739,
      "eccentricity": 0.0002039,
      "inclination_deg": 43.0047,
      "raan_deg": 278.2031,
      "arg_perigee_deg": 286.6596,
      "mean_anomaly_deg": 73.4032,
      "mean_motion_rev_day": 15.27574574
    }
  ]
}